[{"OBJECT_NAME":"ONEWEB-0495","OBJECT_ID":"2022-138C","EPOCH":"2025-12-21T01:03:30.126816","MEAN_MOTION":13.19724618,"ECCENTRICITY":0.000229,"INCLINATION":87.9201,"RA_OF_ASC_NODE":340.4207,"ARG_OF_PERICENTER":70.013,"MEAN_ANOMALY":290.1249,"EPHEMERIS_TYPE":0,"CLASSIFICATION_TYPE":"U","NORAD_CAT_ID":54115,"ELEMENT_SET_NO":999,"REV_AT_EPOCH":15332,"BSTAR":3.6853e-5,"MEAN_MOTION_DOT":2.8e-7,"MEAN_MOTION_DDOT":0},{"OBJECT_NAME":"ONEWEB-0497","OBJECT_ID":"2022-138D","EPOCH":"2025-12-21T05:00:03.269952","MEAN_MOTION":13.19725516,"ECCENTRICITY":0.0001828,"INCLINATION":87.9206,"RA_OF_ASC_NODE":340.3745,"ARG_OF_PERICENTER":82.9495,"MEAN_ANOMALY":277.1846,"EPHEMERIS_TYPE":0,"CLASSIFICATION_TYPE":"U","NORAD_CAT_ID":54116,"ELEMENT_SET_NO":999,"REV_AT_EPOCH":15333,"BSTAR":0.00010559,"MEAN_MOTION_DOT":5.5e-7,"MEAN_MOTION_DDOT":0},{"OBJECT_NAME":"ONEWEB-0499","OBJECT_ID":"2022-138E","EPOCH":"2025-12-20T21:19:27.812640","MEAN_MOTION":13.19726428,"ECCENTRICITY":0.0002016,"INCLINATION":87.9205,"RA_OF_ASC_NODE":340.4511,"ARG_OF_PERICENTER":85.7268,"MEAN_ANOMALY":274.4095,"EPHEMERIS_TYPE":0,"CLASSIFICATION_TYPE":"U","NORAD_CAT_ID":54117,"ELEMENT_SET_NO":999,"REV_AT_EPOCH":15330,"BSTAR":-7.8632e-5,"MEAN_MOTION_DOT":-1.9e-7,"MEAN_MOTION_DDOT":0},{"OBJECT_NAME":"ONEWEB-0500","OBJECT_ID":"2022-138F","EPOCH":"2025-12-20T23:12:03.667104","MEAN_MOTION":13.19725431,"ECCENTRICITY":0.0001764,"INCLINATION":87.9206,"RA_OF_ASC_NODE":340.4235,"ARG_OF_PERICENTER":84.563,"MEAN_ANOMALY":275.5704,"EPHEMERIS_TYPE":0,"CLASSIFICATION_TYPE":"U","NORAD_CAT_ID":54118,"ELEMENT_SET_NO":999,"REV_AT_EPOCH":15332,"BSTAR":3.1049e-5,"MEAN_MOTION_DOT":2.5e-7,"MEAN_MOTION_DDOT":0},{"OBJECT_NAME":"ONEWEB-0501","OBJECT_ID":"2022-138G","EPOCH":"2025-12-20T22:06:06.471072","MEAN_MOTION":13.19724857,"ECCENTRICITY":0.0002064,"INCLINATION":87.9209,"RA_OF_ASC_NODE":340.4314,"ARG_OF_PERICENTER":78.1802,"MEAN_ANOMALY":281.9562,"EPHEMERIS_TYPE":0,"CLASSIFICATION_TYPE":"U","NORAD_CAT_ID":54119,"ELEMENT_SET_NO":999,"REV_AT_EPOCH":15329,"BSTAR":0.00020552,"MEAN_MOTION_DOT":9.5e-7,"MEAN_MOTION_DDOT":0},{"OBJECT_NAME":"ONEWEB-0502","OBJECT_ID":"2022-138H","EPOCH":"2025-12-21T05:02:19.732704","MEAN_MOTION":13.1972613,"ECCENTRICITY":0.000207,"INCLINATION":87.9214,"RA_OF_ASC_NODE":340.3555,"ARG_OF_PERICENTER":82.1223,"MEAN_ANOMALY":278.0145,"EPHEMERIS_TYPE":0,"CLASSIFICATION_TYPE":"U","NORAD_CAT_ID":54120,"ELEMENT_SET_NO":999,"REV_AT_EPOCH":15335,"BSTAR":0.00023223,"MEAN_MOTION_DOT":1.06e-6,"MEAN_MOTION_DDOT":0},{"OBJECT_NAME":"ONEWEB-0503","OBJECT_ID":"2022-138J","EPOCH":"2025-12-21T04:46:24.343968","MEAN_MOTION":13.19725613,"ECCENTRICITY":0.0001996,"INCLINATION":87.9214,"RA_OF_ASC_NODE":340.3616,"ARG_OF_PERICENTER":92.248,"MEAN_ANOMALY":267.8882,"EPHEMERIS_TYPE":0,"CLASSIFICATION_TYPE":"U","NORAD_CAT_ID":54121,"ELEMENT_SET_NO":999,"REV_AT_EPOCH":15334,"BSTAR":-3.0207e-5,"MEAN_MOTION_DOT":1.0e-8,"MEAN_MOTION_DDOT":0},{"OBJECT_NAME":"ONEWEB-0504","OBJECT_ID":"2022-138K","EPOCH":"2025-12-20T23:00:40.832352","MEAN_MOTION":13.19725008,"ECCENTRICITY":0.0002081,"INCLINATION":87.921,"RA_OF_ASC_NODE":340.425,"ARG_OF_PERICENTER":83.2694,"MEAN_ANOMALY":276.8676,"EPHEMERIS_TYPE":0,"CLASSIFICATION_TYPE":"U","NORAD_CAT_ID":54122,"ELEMENT_SET_NO":999,"REV_AT_EPOCH":15332,"BSTAR":-5.0355e-5,"MEAN_MOTION_DOT":-7.0e-8,"MEAN_MOTION_DDOT":0},{"OBJECT_NAME":"ONEWEB-0505","OBJECT_ID":"2022-138L","EPOCH":"2025-12-20T17:28:36.115392","MEAN_MOTION":13.19725633,"ECCENTRICITY":0.00022396,"INCLINATION":87.9214,"RA_OF_ASC_NODE":340.4609,"ARG_OF_PERICENTER":79.2541,"MEAN_ANOMALY":280.8844,"EPHEMERIS_TYPE":0,"CLASSIFICATION_TYPE":"U","NORAD_CAT_ID":54123,"ELEMENT_SET_NO":999,"REV_AT_EPOCH":15327,"BSTAR":-5.9794728e-5,"MEAN_MOTION_DOT":-1.1e-7,"MEAN_MOTION_DDOT":0},{"OBJECT_NAME":"ONEWEB-0506","OBJECT_ID":"2022-138M","EPOCH":"2025-12-20T22:19:44.825088","MEAN_MOTION":13.19724664,"ECCENTRICITY":0.0001955,"INCLINATION":87.9212,"RA_OF_ASC_NODE":340.4183,"ARG_OF_PERICENTER":82.7843,"MEAN_ANOMALY":277.3512,"EPHEMERIS_TYPE":0,"CLASSIFICATION_TYPE":"U","NORAD_CAT_ID":54124,"ELEMENT_SET_NO":999,"REV_AT_EPOCH":15329,"BSTAR":-1.9101e-5,"MEAN_MOTION_DOT":5.0e-8,"MEAN_MOTION_DDOT":0},{"OBJECT_NAME":"ONEWEB-0507","OBJECT_ID":"2022-138N","EPOCH":"2025-12-20T21:00:08.366112","MEAN_MOTION":13.19724871,"ECCENTRICITY":0.0001937,"INCLINATION":87.9195,"RA_OF_ASC_NODE":340.4626,"ARG_OF_PERICENTER":78.0143,"MEAN_ANOMALY":282.1207,"EPHEMERIS_TYPE":0,"CLASSIFICATION_TYPE":"U","NORAD_CAT_ID":54125,"ELEMENT_SET_NO":999,"REV_AT_EPOCH":15333,"BSTAR":-0.00018025,"MEAN_MOTION_DOT":-5.9e-7,"MEAN_MOTION_DDOT":0},{"OBJECT_NAME":"ONEWEB-0508","OBJECT_ID":"2022-138P","EPOCH":"2025-12-21T00:33:56.238048","MEAN_MOTION":13.19725072,"ECCENTRICITY":0.000195,"INCLINATION":87.9207,"RA_OF_ASC_NODE":340.4277,"ARG_OF_PERICENTER":75.5994,"MEAN_ANOMALY":284.5355,"EPHEMERIS_TYPE":0,"CLASSIFICATION_TYPE":"U","NORAD_CAT_ID":54126,"ELEMENT_SET_NO":999,"REV_AT_EPOCH":15333,"BSTAR":-0.00048846,"MEAN_MOTION_DOT":-1.83e-6,"MEAN_MOTION_DDOT":0},{"OBJECT_NAME":"ONEWEB-0509","OBJECT_ID":"2022-138Q","EPOCH":"2025-12-20T22:08:22.296192","MEAN_MOTION":13.19724694,"ECCENTRICITY":0.0001879,"INCLINATION":87.9216,"RA_OF_ASC_NODE":340.4192,"ARG_OF_PERICENTER":82.484,"MEAN_ANOMALY":277.6506,"EPHEMERIS_TYPE":0,"CLASSIFICATION_TYPE":"U","NORAD_CAT_ID":54127,"ELEMENT_SET_NO":999,"REV_AT_EPOCH":15329,"BSTAR":0.00020965,"MEAN_MOTION_DOT":9.7e-7,"MEAN_MOTION_DDOT":0},{"OBJECT_NAME":"ONEWEB-0510","OBJECT_ID":"2022-138R","EPOCH":"2025-12-20T21:01:06.000960","MEAN_MOTION":13.20770819,"ECCENTRICITY":0.000159,"INCLINATION":87.9214,"RA_OF_ASC_NODE":309.9969,"ARG_OF_PERICENTER":94.2478,"MEAN_ANOMALY":265.8837,"EPHEMERIS_TYPE":0,"CLASSIFICATION_TYPE":"U","NORAD_CAT_ID":54128,"ELEMENT_SET_NO":999,"REV_AT_EPOCH":15574,"BSTAR":-5.2823e-5,"MEAN_MOTION_DOT":-8.0e-8,"MEAN_MOTION_DDOT":0},{"OBJECT_NAME":"ONEWEB-0511","OBJECT_ID":"2022-138S","EPOCH":"2025-12-20T22:03:49.713696","MEAN_MOTION":13.19724848,"ECCENTRICITY":0.0002052,"INCLINATION":87.9214,"RA_OF_ASC_NODE":340.4234,"ARG_OF_PERICENTER":91.1341,"MEAN_ANOMALY":269.0026,"EPHEMERIS_TYPE":0,"CLASSIFICATION_TYPE":"U","NORAD_CAT_ID":54129,"ELEMENT_SET_NO":999,"REV_AT_EPOCH":15332,"BSTAR":0.00019902,"MEAN_MOTION_DOT":9.3e-7,"MEAN_MOTION_DDOT":0},{"OBJECT_NAME":"ONEWEB-0512","OBJECT_ID":"2022-138T","EPOCH":"2025-12-21T05:09:08.992224","MEAN_MOTION":13.19725653,"ECCENTRICITY":0.000218,"INCLINATION":87.9194,"RA_OF_ASC_NODE":340.3861,"ARG_OF_PERICENTER":85.1291,"MEAN_ANOMALY":275.0091,"EPHEMERIS_TYPE":0,"CLASSIFICATION_TYPE":"U","NORAD_CAT_ID":54130,"ELEMENT_SET_NO":999,"REV_AT_EPOCH":15333,"BSTAR":-2.0718e-5,"MEAN_MOTION_DOT":5.0e-8,"MEAN_MOTION_DDOT":0},{"OBJECT_NAME":"ONEWEB-0513","OBJECT_ID":"2022-138U","EPOCH":"2025-12-20T21:55:57.718272","MEAN_MOTION":13.20260595,"ECCENTRICITY":0.0002747,"INCLINATION":87.9213,"RA_OF_ASC_NODE":340.4082,"ARG_OF_PERICENTER":83.0149,"MEAN_ANOMALY":277.1297,"EPHEMERIS_TYPE":0,"CLASSIFICATION_TYPE":"U","NORAD_CAT_ID":54131,"ELEMENT_SET_NO":999,"REV_AT_EPOCH":15319,"BSTAR":0.00016981,"MEAN_MOTION_DOT":8.1e-7,"MEAN_MOTION_DDOT":0}]
