ONEWEB-0495             
1 54115U 22138C   25355.04409869  .00000028  00000+0  36853-4 0  9990
2 54115  87.9201 340.4207 0002290  70.0130 290.1249 13.19724618153322
ONEWEB-0497             
1 54116U 22138D   25355.20837118  .00000055  00000+0  10559-3 0  9995
2 54116  87.9206 340.3745 0001828  82.9495 277.1846 13.19725516153333
ONEWEB-0499             
1 54117U 22138E   25354.88851635 -.00000019  00000+0 -78632-4 0  9998
2 54117  87.9205 340.4511 0002016  85.7268 274.4095 13.19726428153300
ONEWEB-0500             
1 54118U 22138F   25354.96670911  .00000025  00000+0  31049-4 0  9990
2 54118  87.9206 340.4235 0001764  84.5630 275.5704 13.19725431153328
ONEWEB-0501             
1 54119U 22138G   25354.92090823  .00000095  00000+0  20552-3 0  9998
2 54119  87.9209 340.4314 0002064  78.1802 281.9562 13.19724857153294
ONEWEB-0502             
1 54120U 22138H   25355.20995061  .00000106  00000+0  23223-3 0  9991
2 54120  87.9214 340.3555 0002070  82.1223 278.0145 13.19726130153354
ONEWEB-0503             
1 54121U 22138J   25355.19889287  .00000001  00000+0 -30207-4 0  9998
2 54121  87.9214 340.3616 0001996  92.2480 267.8882 13.19725613153344
ONEWEB-0504             
1 54122U 22138K   25354.95880593 -.00000007  00000+0 -50355-4 0  9996
2 54122  87.9210 340.4250 0002081  83.2694 276.8676 13.19725008153326
ONEWEB-0505             
1 54123U 22138L   25354.72819578 -.00000011  00000+0 -59795-4 0  9999
2 54123  87.9214 340.4609 0002239  79.2541 280.8844 13.19725633153270
ONEWEB-0506             
1 54124U 22138M   25354.93037992  .00000005  00000+0 -19101-4 0  9994
2 54124  87.9212 340.4183 0001955  82.7843 277.3512 13.19724664153292
ONEWEB-0507             
1 54125U 22138N   25354.87509683 -.00000059  00000+0 -18025-3 0  9992
2 54125  87.9195 340.4626 0001937  78.0143 282.1207 13.19724871153336
ONEWEB-0508             
1 54126U 22138P   25355.02356757 -.00000183  00000+0 -48846-3 0  9995
2 54126  87.9207 340.4277 0001950  75.5994 284.5355 13.19725072153338
ONEWEB-0509             
1 54127U 22138Q   25354.92248028  .00000097  00000+0  20965-3 0  9999
2 54127  87.9216 340.4192 0001879  82.4840 277.6506 13.19724694153297
ONEWEB-0510             
1 54128U 22138R   25354.87576390 -.00000008  00000+0 -52823-4 0  9993
2 54128  87.9214 309.9969 0001590  94.2478 265.8837 13.20770819155746
ONEWEB-0511             
1 54129U 22138S   25354.91932539  .00000093  00000+0  19902-3 0  9992
2 54129  87.9214 340.4234 0002052  91.1341 269.0026 13.19724848153328
ONEWEB-0512             
1 54130U 22138T   25355.21468741  .00000005  00000+0 -20718-4 0  9999
2 54130  87.9194 340.3861 0002180  85.1291 275.0091 13.19725653153336
ONEWEB-0513             
1 54131U 22138U   25354.91386248  .00000081  00000+0  16981-3 0  9996
2 54131  87.9213 340.4082 0002747  83.0149 277.1297 13.20260595153199
